{"type": "FeatureCollection", "features": [ {"type": "Feature", "properties": {"norad_id": 30960, "name": "FENGYUN 1C DEB", "group": "fengyun-1c-debris", "lat": 72.54364694832341, "lon": -56.12015156107609, "alt_km": 647.4438719825266, "timestamp": "2025-12-04T13:52:00.722426+00:00", "meta": {"OBJECT_NAME": "FENGYUN 1C DEB", "OBJECT_ID": "1999-025BBA", "EPOCH": "2025-12-02T12:15:11.105280", "MEAN_MOTION": 14.66504511, "ECCENTRICITY": 0.01941307, "INCLINATION": 98.9764, "RA_OF_ASC_NODE": 91.4423, "ARG_OF_PERICENTER": 195.0781, "MEAN_ANOMALY": 164.4583, "EPHEMERIS_TYPE": 0, "CLASSIFICATION_TYPE": "U", "NORAD_CAT_ID": 30960, "ELEMENT_SET_NO": 999, "REV_AT_EPOCH": 98548, "BSTAR": 0.001940847, "MEAN_MOTION_DOT": 0.00014219, "MEAN_MOTION_DDOT": 0}, "tle": {"line1": "1 30960U 99025BBA 25336.51054520  .00014219  00000+0  19408-2 0  9994", "line2": "2 30960  98.9764  91.4423 0194130 195.0781 164.4583 14.66504511985483"}}, "geometry": {"type": "Point", "coordinates": [-56.12015156107609, 72.54364694832341]}}, {"type": "Feature", "properties": {"norad_id": 30967, "name": "FENGYUN 1C DEB", "group": "fengyun-1c-debris", "lat": -75.40220620182566, "lon": 68.05757133621506, "alt_km": 643.3040720967074, "timestamp": "2025-12-04T13:52:00.722436+00:00", "meta": {"OBJECT_NAME": "FENGYUN 1C DEB", "OBJECT_ID": "1999-025BBH", "EPOCH": "2025-12-02T19:28:31.282752", "MEAN_MOTION": 14.57001959, "ECCENTRICITY": 0.00949855, "INCLINATION": 98.7625, "RA_OF_ASC_NODE": 282.5159, "ARG_OF_PERICENTER": 270.4458, "MEAN_ANOMALY": 88.5855, "EPHEMERIS_TYPE": 0, "CLASSIFICATION_TYPE": "U", "NORAD_CAT_ID": 30967, "ELEMENT_SET_NO": 999, "REV_AT_EPOCH": 98869, "BSTAR": 0.0013117286, "MEAN_MOTION_DOT": 6.22e-05, "MEAN_MOTION_DDOT": 0}, "tle": {"line1": "1 30967U 99025BBH 25336.81147318  .00006220  00000+0  13117-2 0  9996", "line2": "2 30967  98.7625 282.5159 0094985 270.4458  88.5855 14.57001959988691"}}, "geometry": {"type": "Point", "coordinates": [68.05757133621506, -75.40220620182566]}}, {"type": "Feature", "properties": {"norad_id": 30971, "name": "FENGYUN 1C DEB", "group": "fengyun-1c-debris", "lat": 34.7339304390349, "lon": 14.897073836596256, "alt_km": 768.8602848089758, "timestamp": "2025-12-04T13:52:00.722446+00:00", "meta": {"OBJECT_NAME": "FENGYUN 1C DEB", "OBJECT_ID": "1999-025BBM", "EPOCH": "2025-12-03T02:03:16.628832", "MEAN_MOTION": 14.71558053, "ECCENTRICITY": 0.01637066, "INCLINATION": 99.2113, "RA_OF_ASC_NODE": 19.6692, "ARG_OF_PERICENTER": 221.0179, "MEAN_ANOMALY": 193.8731, "EPHEMERIS_TYPE": 0, "CLASSIFICATION_TYPE": "U", "NORAD_CAT_ID": 30971, "ELEMENT_SET_NO": 999, "REV_AT_EPOCH": 99575, "BSTAR": 0.00085353718, "MEAN_MOTION_DOT": 6.475e-05, "MEAN_MOTION_DDOT": 0}, "tle": {"line1": "1 30971U 99025BBM 25337.08560913  .00006475  00000+0  85354-3 0  9996", "line2": "2 30971  99.2113  19.6692 0163706 221.0179 193.8731 14.71558053995751"}}, "geometry": {"type": "Point", "coordinates": [14.897073836596256, 34.7339304390349]}}, {"type": "Feature", "properties": {"norad_id": 30979, "name": "FENGYUN 1C DEB", "group": "fengyun-1c-debris", "lat": -63.34797443129633, "lon": 41.32232931301056, "alt_km": 518.0487145342922, "timestamp": "2025-12-04T13:52:00.722456+00:00", "meta": {"OBJECT_NAME": "FENGYUN 1C DEB", "OBJECT_ID": "1999-025BBV", "EPOCH": "2025-12-02T04:36:50.855328", "MEAN_MOTION": 14.78416107, "ECCENTRICITY": 0.01913935, "INCLINATION": 97.83, "RA_OF_ASC_NODE": 234.9135, "ARG_OF_PERICENTER": 275.775, "MEAN_ANOMALY": 240.4379, "EPHEMERIS_TYPE": 0, "CLASSIFICATION_TYPE": "U", "NORAD_CAT_ID": 30979, "ELEMENT_SET_NO": 999, "REV_AT_EPOCH": 98989, "BSTAR": 0.0013589928, "MEAN_MOTION_DOT": 0.00013437, "MEAN_MOTION_DDOT": 0}, "tle": {"line1": "1 30979U 99025BBV 25336.19225527  .00013437  00000+0  13590-2 0  9992", "line2": "2 30979  97.8300 234.9135 0191393 275.7750 240.4379 14.78416107989894"}}, "geometry": {"type": "Point", "coordinates": [41.32232931301056, -63.34797443129633]}}, {"type": "Feature", "properties": {"norad_id": 30982, "name": "FENGYUN 1C DEB", "group": "fengyun-1c-debris", "lat": -13.418863162233654, "lon": 147.02281600153887, "alt_km": 830.9173054854318, "timestamp": "2025-12-04T13:52:00.722466+00:00", "meta": {"OBJECT_NAME": "FENGYUN 1C DEB", "OBJECT_ID": "1999-025BBY", "EPOCH": "2025-12-04T06:24:36.937152", "MEAN_MOTION": 14.50900572, "ECCENTRICITY": 0.01811442, "INCLINATION": 98.2152, "RA_OF_ASC_NODE": 328.6945, "ARG_OF_PERICENTER": 338.7, "MEAN_ANOMALY": 34.1018, "EPHEMERIS_TYPE": 0, "CLASSIFICATION_TYPE": "U", "NORAD_CAT_ID": 30982, "ELEMENT_SET_NO": 999, "REV_AT_EPOCH": 70931, "BSTAR": 0.00077704382, "MEAN_MOTION_DOT": 3.741e-05, "MEAN_MOTION_DDOT": 0}, "tle": {"line1": "1 30982U 99025BBY 25338.26709418  .00003741  00000+0  77704-3 0  9997", "line2": "2 30982  98.2152 328.6945 0181144 338.7000  34.1018 14.50900572709318"}}, "geometry": {"type": "Point", "coordinates": [147.02281600153887, -13.418863162233654]}}, {"type": "Feature", "properties": {"norad_id": 30984, "name": "FENGYUN 1C DEB", "group": "fengyun-1c-debris", "lat": 81.67471407365727, "lon": -68.3193470571712, "alt_km": 665.3422595711681, "timestamp": "2025-12-04T13:52:00.722476+00:00", "meta": {"OBJECT_NAME": "FENGYUN 1C DEB", "OBJECT_ID": "1999-025BCA", "EPOCH": "2025-12-03T01:02:26.854368", "MEAN_MOTION": 14.50329769, "ECCENTRICITY": 0.01281668, "INCLINATION": 98.2653, "RA_OF_ASC_NODE": 13.5601, "ARG_OF_PERICENTER": 37.7619, "MEAN_ANOMALY": 323.2485, "EPHEMERIS_TYPE": 0, "CLASSIFICATION_TYPE": "U", "NORAD_CAT_ID": 30984, "ELEMENT_SET_NO": 999, "REV_AT_EPOCH": 95023, "BSTAR": 0.00098864934, "MEAN_MOTION_DOT": 4.238e-05, "MEAN_MOTION_DDOT": 0}, "tle": {"line1": "1 30984U 99025BCA 25337.04336637  .00004238  00000+0  98865-3 0  9996", "line2": "2 30984  98.2653  13.5601 0128166  37.7619 323.2485 14.50329769950234"}}, "geometry": {"type": "Point", "coordinates": [-68.3193470571712, 81.67471407365727]}}, {"type": "Feature", "properties": {"norad_id": 30988, "name": "FENGYUN 1C DEB", "group": "fengyun-1c-debris", "lat": 8.271806636542173, "lon": -76.45809138723911, "alt_km": 412.2721029888926, "timestamp": "2025-12-04T13:52:00.722487+00:00", "meta": {"OBJECT_NAME": "FENGYUN 1C DEB", "OBJECT_ID": "1999-025BCE", "EPOCH": "2025-12-03T07:54:06.145920", "MEAN_MOTION": 15.24405925, "ECCENTRICITY": 0.0119062, "INCLINATION": 98.5424, "RA_OF_ASC_NODE": 283.3715, "ARG_OF_PERICENTER": 12.1711, "MEAN_ANOMALY": 348.2354, "EPHEMERIS_TYPE": 0, "CLASSIFICATION_TYPE": "U", "NORAD_CAT_ID": 30988, "ELEMENT_SET_NO": 999, "REV_AT_EPOCH": 99420, "BSTAR": 0.0027943, "MEAN_MOTION_DOT": 0.00084539, "MEAN_MOTION_DDOT": 0}, "tle": {"line1": "1 30988U 99025BCE 25337.32923780  .00084539  00000+0  27943-2 0  9992", "line2": "2 30988  98.5424 283.3715 0119062  12.1711 348.2354 15.24405925994203"}}, "geometry": {"type": "Point", "coordinates": [-76.45809138723911, 8.271806636542173]}}, {"type": "Feature", "properties": {"norad_id": 30989, "name": "FENGYUN 1C DEB", "group": "fengyun-1c-debris", "lat": 1.098232473570891, "lon": -127.78361535117693, "alt_km": 811.4781664094626, "timestamp": "2025-12-04T13:52:00.722497+00:00", "meta": {"OBJECT_NAME": "FENGYUN 1C DEB", "OBJECT_ID": "1999-025BCF", "EPOCH": "2025-12-02T21:58:05.055456", "MEAN_MOTION": 14.13841846, "ECCENTRICITY": 0.00920392, "INCLINATION": 99.0546, "RA_OF_ASC_NODE": 50.3579, "ARG_OF_PERICENTER": 127.3294, "MEAN_ANOMALY": 233.6309, "EPHEMERIS_TYPE": 0, "CLASSIFICATION_TYPE": "U", "NORAD_CAT_ID": 30989, "ELEMENT_SET_NO": 999, "REV_AT_EPOCH": 95849, "BSTAR": 0.0021362586, "MEAN_MOTION_DOT": 4.171e-05, "MEAN_MOTION_DDOT": 0}, "tle": {"line1": "1 30989U 99025BCF 25336.91533629  .00004171  00000+0  21363-2 0  9990", "line2": "2 30989  99.0546  50.3579 0092039 127.3294 233.6309 14.13841846958495"}}, "geometry": {"type": "Point", "coordinates": [-127.78361535117693, 1.098232473570891]}}, {"type": "Feature", "properties": {"norad_id": 30993, "name": "FENGYUN 1C DEB", "group": "fengyun-1c-debris", "lat": -25.24292054783344, "lon": -113.3974070546385, "alt_km": 791.1428934784926, "timestamp": "2025-12-04T13:52:00.722507+00:00", "meta": {"OBJECT_NAME": "FENGYUN 1C DEB", "OBJECT_ID": "1999-025BCK", "EPOCH": "2025-12-04T06:33:10.508256", "MEAN_MOTION": 14.35282971, "ECCENTRICITY": 0.00166299, "INCLINATION": 98.8475, "RA_OF_ASC_NODE": 70.5017, "ARG_OF_PERICENTER": 41.5096, "MEAN_ANOMALY": 30.1521, "EPHEMERIS_TYPE": 0, "CLASSIFICATION_TYPE": "U", "NORAD_CAT_ID": 30993, "ELEMENT_SET_NO": 999, "REV_AT_EPOCH": 96798, "BSTAR": 0.0047535346, "MEAN_MOTION_DOT": 0.00013616, "MEAN_MOTION_DDOT": 0}, "tle": {"line1": "1 30993U 99025BCK 25338.27303829  .00013616  00000+0  47535-2 0  9996", "line2": "2 30993  98.8475  70.5017 0016629  41.5096  30.1521 14.35282971967989"}}, "geometry": {"type": "Point", "coordinates": [-113.3974070546385, -25.24292054783344]}}, {"type": "Feature", "properties": {"norad_id": 30994, "name": "FENGYUN 1C DEB", "group": "fengyun-1c-debris", "lat": -35.2754690716918, "lon": 161.05113296542956, "alt_km": 847.5573962439357, "timestamp": "2025-12-04T13:52:00.722517+00:00", "meta": {"OBJECT_NAME": "FENGYUN 1C DEB", "OBJECT_ID": "1999-025BCL", "EPOCH": "2025-12-04T06:02:40.849152", "MEAN_MOTION": 14.11763384, "ECCENTRICITY": 0.00174015, "INCLINATION": 98.7003, "RA_OF_ASC_NODE": 346.9535, "ARG_OF_PERICENTER": 198.9371, "MEAN_ANOMALY": 161.1156, "EPHEMERIS_TYPE": 0, "CLASSIFICATION_TYPE": "U", "NORAD_CAT_ID": 30994, "ELEMENT_SET_NO": 999, "REV_AT_EPOCH": 96465, "BSTAR": 0.0002933734, "MEAN_MOTION_DOT": 4.93e-06, "MEAN_MOTION_DDOT": 0}, "tle": {"line1": "1 30994U 99025BCL 25338.25186168  .00000493  00000+0  29337-3 0  9990", "line2": "2 30994  98.7003 346.9535 0017401 198.9371 161.1156 14.11763384964659"}}, "geometry": {"type": "Point", "coordinates": [161.05113296542956, -35.2754690716918]}}]}